start=new Date('2023-02-07T00:00:00.000Z').valueOf();
sats=[{"TLE_LINE2":"2 52683  53.2176 163.2539 0001289  87.7041 272.4099 15.08859165 41002","REV_AT_EPOCH":"4100","ARG_OF_PERICENTER":"87.7041","TIME_SYSTEM":"UTC","CENTER_NAME":"EARTH","LAUNCH_DATE":"2022-05-18","MEAN_MOTION_DDOT":"0.0000000000000","GP_ID":"224651944","ECCENTRICITY":"0.00012890","MEAN_MOTION":"15.08859165","NORAD_CAT_ID":"52683","OBJECT_ID":"2022-053AD","TLE_LINE1":"1 52683U 22053AD  23037.72772002  .00007227  00000-0  47147-3 0  9992","OBJECT_NAME":"STARLINK-4039","RA_OF_ASC_NODE":"163.2539","MEAN_ELEMENT_THEORY":"SGP4","INCLINATION":"53.2176","EPHEMERIS_TYPE":"0","REF_FRAME":"TEME","APOAPSIS":"540.579","RCS_SIZE":"LARGE","CLASSIFICATION_TYPE":"U","EPOCH":"2023-02-06T17:27:55.009728","OBJECT_TYPE":"PAYLOAD","SITE":"AFETR","SEMIMAJOR_AXIS":"6917.822","ELEMENT_SET_NO":"999","FILE":"3776034","MEAN_MOTION_DOT":"0.00007227","DECAY_DATE":null,"COUNTRY_CODE":"US","PERIOD":"95.436","BSTAR":"0.00047147000000","MEAN_ANOMALY":"272.4099","PERIAPSIS":"538.795"},{"TLE_LINE2":"2 52684  53.2177 163.1759 0001103 111.0825 249.0285 15.08855646 41000","REV_AT_EPOCH":"4100","ARG_OF_PERICENTER":"111.0825","LAUNCH_DATE":"2022-05-18","MEAN_MOTION_DDOT":"0.0000000000000","CENTER_NAME":"EARTH","TIME_SYSTEM":"UTC","NORAD_CAT_ID":"52684","MEAN_MOTION":"15.08855646","GP_ID":"224653195","ECCENTRICITY":"0.00011030","TLE_LINE1":"1 52684U 22053AE  23037.74243376  .00002254  00000-0  15960-3 0  9995","OBJECT_ID":"2022-053AE","OBJECT_NAME":"STARLINK-4014","INCLINATION":"53.2177","MEAN_ELEMENT_THEORY":"SGP4","RA_OF_ASC_NODE":"163.1759","APOAPSIS":"540.461","REF_FRAME":"TEME","EPHEMERIS_TYPE":"0","EPOCH":"2023-02-06T17:49:06.276864","CLASSIFICATION_TYPE":"U","RCS_SIZE":"LARGE","OBJECT_TYPE":"PAYLOAD","FILE":"3776034","SITE":"AFETR","SEMIMAJOR_AXIS":"6917.833","ELEMENT_SET_NO":"999","DECAY_DATE":null,"MEAN_MOTION_DOT":"0.00002254","PERIOD":"95.437","COUNTRY_CODE":"US","PERIAPSIS":"538.935","MEAN_ANOMALY":"249.0285","BSTAR":"0.00015960000000"},{"FILE":"3776034","ELEMENT_SET_NO":"999","SITE":"AFETR","SEMIMAJOR_AXIS":"6917.853","DECAY_DATE":null,"MEAN_MOTION_DOT":"0.00001539","COUNTRY_CODE":"US","PERIOD":"95.437","MEAN_ANOMALY":"334.0316","PERIAPSIS":"537.434","BSTAR":"0.00011475000000","INCLINATION":"53.2183","RA_OF_ASC_NODE":"162.9875","MEAN_ELEMENT_THEORY":"SGP4","APOAPSIS":"542.001","REF_FRAME":"TEME","EPHEMERIS_TYPE":"0","EPOCH":"2023-02-06T18:52:40.553472","CLASSIFICATION_TYPE":"U","RCS_SIZE":"LARGE","OBJECT_TYPE":"PAYLOAD","MEAN_MOTION_DDOT":"0.0000000000000","LAUNCH_DATE":"2022-05-18","TIME_SYSTEM":"UTC","CENTER_NAME":"EARTH","MEAN_MOTION":"15.08849068","NORAD_CAT_ID":"52685","GP_ID":"224653446","ECCENTRICITY":"0.00033010","TLE_LINE1":"1 52685U 22053AF  23037.78658048  .00001539  00000-0  11475-3 0  9998","OBJECT_ID":"2022-053AF","OBJECT_NAME":"STARLINK-4029","TLE_LINE2":"2 52685  53.2183 162.9875 0003301  26.0842 334.0316 15.08849068 40998","REV_AT_EPOCH":"4099","ARG_OF_PERICENTER":"26.0842"},{"TIME_SYSTEM":"UTC","CENTER_NAME":"EARTH","LAUNCH_DATE":"2022-05-18","MEAN_MOTION_DDOT":"0.0000000000000","ECCENTRICITY":"0.00011290","GP_ID":"224652194","NORAD_CAT_ID":"52686","MEAN_MOTION":"15.08863001","OBJECT_ID":"2022-053AG","TLE_LINE1":"1 52686U 22053AG  23037.73139705  .00002113  00000-0  15070-3 0  9992","OBJECT_NAME":"STARLINK-4005","TLE_LINE2":"2 52686  53.2174 163.2334 0001129  95.3935 264.7186 15.08863001 40998","REV_AT_EPOCH":"4099","ARG_OF_PERICENTER":"95.3935","SITE":"AFETR","SEMIMAJOR_AXIS":"6917.810","ELEMENT_SET_NO":"999","FILE":"3776034","MEAN_MOTION_DOT":"0.00002113","DECAY_DATE":null,"PERIOD":"95.436","COUNTRY_CODE":"US","BSTAR":"0.00015070000000","PERIAPSIS":"538.894","MEAN_ANOMALY":"264.7186","MEAN_ELEMENT_THEORY":"SGP4","RA_OF_ASC_NODE":"163.2334","INCLINATION":"53.2174","EPHEMERIS_TYPE":"0","REF_FRAME":"TEME","APOAPSIS":"540.456","RCS_SIZE":"LARGE","CLASSIFICATION_TYPE":"U","EPOCH":"2023-02-06T17:33:12.705120","OBJECT_TYPE":"PAYLOAD"},{"BSTAR":"0.00008153800000","PERIAPSIS":"538.738","MEAN_ANOMALY":"259.9952","PERIOD":"95.437","COUNTRY_CODE":"US","MEAN_MOTION_DOT":"0.00001010","DECAY_DATE":null,"SEMIMAJOR_AXIS":"6917.835","SITE":"AFETR","ELEMENT_SET_NO":"999","FILE":"3776034","OBJECT_TYPE":"PAYLOAD","RCS_SIZE":"LARGE","CLASSIFICATION_TYPE":"U","EPOCH":"2023-02-06T18:47:23.938944","EPHEMERIS_TYPE":"0","APOAPSIS":"540.662","REF_FRAME":"TEME","MEAN_ELEMENT_THEORY":"SGP4","RA_OF_ASC_NODE":"163.0010","INCLINATION":"53.2140","OBJECT_NAME":"STARLINK-3981","OBJECT_ID":"2022-053AH","TLE_LINE1":"1 52687U 22053AH  23037.78291596  .00001010  00000-0  81538-4 0  9993","GP_ID":"224652444","ECCENTRICITY":"0.00013900","NORAD_CAT_ID":"52687","MEAN_MOTION":"15.08854866","TIME_SYSTEM":"UTC","CENTER_NAME":"EARTH","MEAN_MOTION_DDOT":"0.0000000000000","LAUNCH_DATE":"2022-05-18","ARG_OF_PERICENTER":"100.1197","REV_AT_EPOCH":"4099","TLE_LINE2":"2 52687  53.2140 163.0010 0001390 100.1197 259.9952 15.08854866 40992"},{"OBJECT_NAME":"STARLINK-4032","TLE_LINE1":"1 52688U 22053AJ  23037.72499696  .00000951  00000-0  77804-4 0  9993","OBJECT_ID":"2022-053AJ","NORAD_CAT_ID":"52688","MEAN_MOTION":"15.08848240","GP_ID":"224652695","ECCENTRICITY":"0.00012570","LAUNCH_DATE":"2022-05-18","MEAN_MOTION_DDOT":"0.0000000000000","TIME_SYSTEM":"UTC","CENTER_NAME":"EARTH","ARG_OF_PERICENTER":"87.5592","REV_AT_EPOCH":"4098","TLE_LINE2":"2 52688  53.2164 163.2642 0001257  87.5592 272.5544 15.08848240 40987","PERIAPSIS":"538.851","MEAN_ANOMALY":"272.5544","BSTAR":"0.00007780400000","PERIOD":"95.437","COUNTRY_CODE":"US","DECAY_DATE":null,"MEAN_MOTION_DOT":"0.00000951","FILE":"3776034","SITE":"AFETR","ELEMENT_SET_NO":"999","SEMIMAJOR_AXIS":"6917.855","OBJECT_TYPE":"PAYLOAD","EPOCH":"2023-02-06T17:23:59.737344","CLASSIFICATION_TYPE":"U","RCS_SIZE":"LARGE","REF_FRAME":"TEME","APOAPSIS":"540.590","EPHEMERIS_TYPE":"0","INCLINATION":"53.2164","MEAN_ELEMENT_THEORY":"SGP4","RA_OF_ASC_NODE":"163.2642"},{"TLE_LINE2":"2 52689  53.2146 163.0573 0001151 110.4291 249.6825 15.08854154 41028","REV_AT_EPOCH":"4102","ARG_OF_PERICENTER":"110.4291","TIME_SYSTEM":"UTC","CENTER_NAME":"EARTH","MEAN_MOTION_DDOT":"0.0000000000000","LAUNCH_DATE":"2022-05-18","GP_ID":"224652946","ECCENTRICITY":"0.00011510","MEAN_MOTION":"15.08854154","NORAD_CAT_ID":"52689","OBJECT_ID":"2022-053AK","TLE_LINE1":"1 52689U 22053AK  23037.77187364  .00001846  00000-0  13396-3 0  9994","OBJECT_NAME":"STARLINK-4078","RA_OF_ASC_NODE":"163.0573","MEAN_ELEMENT_THEORY":"SGP4","INCLINATION":"53.2146","EPHEMERIS_TYPE":"0","REF_FRAME":"TEME","APOAPSIS":"540.498","RCS_SIZE":"LARGE","EPOCH":"2023-02-06T18:31:29.882496","CLASSIFICATION_TYPE":"U","OBJECT_TYPE":"PAYLOAD","ELEMENT_SET_NO":"999","SITE":"AFETR","SEMIMAJOR_AXIS":"6917.837","FILE":"3776034","MEAN_MOTION_DOT":"0.00001846","DECAY_DATE":null,"COUNTRY_CODE":"US","PERIOD":"95.437","BSTAR":"0.00013396000000","MEAN_ANOMALY":"249.6825","PERIAPSIS":"538.906"},{"MEAN_ELEMENT_THEORY":"SGP4","RA_OF_ASC_NODE":"163.2652","INCLINATION":"53.2160","EPHEMERIS_TYPE":"0","REF_FRAME":"TEME","APOAPSIS":"540.608","RCS_SIZE":"LARGE","EPOCH":"2023-02-06T17:22:37.158816","CLASSIFICATION_TYPE":"U","OBJECT_TYPE":"PAYLOAD","SEMIMAJOR_AXIS":"6917.847","SITE":"AFETR","ELEMENT_SET_NO":"999","FILE":"3776034","MEAN_MOTION_DOT":"0.00002280","DECAY_DATE":null,"PERIOD":"95.437","COUNTRY_CODE":"US","BSTAR":"0.00016122000000","PERIAPSIS":"538.817","MEAN_ANOMALY":"268.1777","TLE_LINE2":"2 52690  53.2160 163.2652 0001295  91.9363 268.1777 15.08850802 40980","REV_AT_EPOCH":"4098","ARG_OF_PERICENTER":"91.9363","CENTER_NAME":"EARTH","TIME_SYSTEM":"UTC","MEAN_MOTION_DDOT":"0.0000000000000","LAUNCH_DATE":"2022-05-18","GP_ID":"224651695","ECCENTRICITY":"0.00012950","NORAD_CAT_ID":"52690","MEAN_MOTION":"15.08850802","OBJECT_ID":"2022-053AL","TLE_LINE1":"1 52690U 22053AL  23037.72404119  .00002280  00000-0  16122-3 0  9994","OBJECT_NAME":"STARLINK-4035"},{"TLE_LINE2":"2 52691  53.2170 163.9688 0001279  84.5366 275.5772 15.08850533 40596","ARG_OF_PERICENTER":"84.5366","REV_AT_EPOCH":"4059","MEAN_MOTION":"15.08850533","NORAD_CAT_ID":"52691","GP_ID":"224616688","ECCENTRICITY":"0.00012790","MEAN_MOTION_DDOT":"0.0000000000000","LAUNCH_DATE":"2022-05-18","TIME_SYSTEM":"UTC","CENTER_NAME":"EARTH","OBJECT_NAME":"STARLINK-3945","TLE_LINE1":"1 52691U 22053AM  23037.56947921  .00001988  00000-0  14289-3 0  9996","OBJECT_ID":"2022-053AM","APOAPSIS":"540.598","REF_FRAME":"TEME","EPHEMERIS_TYPE":"0","INCLINATION":"53.2170","RA_OF_ASC_NODE":"163.9688","MEAN_ELEMENT_THEORY":"SGP4","OBJECT_TYPE":"PAYLOAD","EPOCH":"2023-02-06T13:40:03.003744","CLASSIFICATION_TYPE":"U","RCS_SIZE":"LARGE","DECAY_DATE":null,"MEAN_MOTION_DOT":"0.00001988","FILE":"3775490","SITE":"AFETR","ELEMENT_SET_NO":"999","SEMIMAJOR_AXIS":"6917.848","MEAN_ANOMALY":"275.5772","PERIAPSIS":"538.828","BSTAR":"0.00014289000000","COUNTRY_CODE":"US","PERIOD":"95.437"},{"MEAN_MOTION_DDOT":"0.0000000000000","LAUNCH_DATE":"2022-05-18","CENTER_NAME":"EARTH","TIME_SYSTEM":"UTC","MEAN_MOTION":"15.08836942","NORAD_CAT_ID":"52692","GP_ID":"224653196","ECCENTRICITY":"0.00011490","TLE_LINE1":"1 52692U 22053AN  23037.71300374 -.00000183  00000-0  66118-5 0  9996","OBJECT_ID":"2022-053AN","OBJECT_NAME":"STARLINK-3993","TLE_LINE2":"2 52692  53.2171 163.3228 0001149 108.5406 251.5711 15.08836942 41013","REV_AT_EPOCH":"4101","ARG_OF_PERICENTER":"108.5406","FILE":"3776034","ELEMENT_SET_NO":"999","SITE":"AFETR","SEMIMAJOR_AXIS":"6917.890","DECAY_DATE":null,"MEAN_MOTION_DOT":"-0.00000183","COUNTRY_CODE":"US","PERIOD":"95.438","MEAN_ANOMALY":"251.5711","PERIAPSIS":"538.960","BSTAR":"0.00000661180000","INCLINATION":"53.2171","RA_OF_ASC_NODE":"163.3228","MEAN_ELEMENT_THEORY":"SGP4","APOAPSIS":"540.550","REF_FRAME":"TEME","EPHEMERIS_TYPE":"0","CLASSIFICATION_TYPE":"U","EPOCH":"2023-02-06T17:06:43.523136","RCS_SIZE":"LARGE","OBJECT_TYPE":"PAYLOAD"}];
